start=new Date('2022-03-04T00:00:00.000Z').valueOf();
sats=[{"FILE":"3343255","BSTAR":"0.00015397000000","ECCENTRICITY":"0.00016250","MEAN_MOTION_DOT":"0.00002012","OBJECT_NAME":"STARLINK-1799","GP_ID":"197766713","TLE_LINE2":"2 46699  53.0544 346.1887 0001625  68.8488 291.2675 15.06393431 76055","PERIAPSIS":"546.108","SITE":"AFETR","MEAN_MOTION":"15.06393431","OBJECT_ID":"2020-073AF","SEMIMAJOR_AXIS":"6925.369","ARG_OF_PERICENTER":"68.8488","NORAD_CAT_ID":"46699","EPOCH":"2022-03-03T22:14:01.598496","CENTER_NAME":"EARTH","PERIOD":"95.593","TIME_SYSTEM":"UTC","ELEMENT_SET_NO":"999","RA_OF_ASC_NODE":"346.1887","OBJECT_TYPE":"PAYLOAD","RCS_SIZE":"LARGE","EPHEMERIS_TYPE":"0","CLASSIFICATION_TYPE":"U","MEAN_MOTION_DDOT":"0.0000000000000","INCLINATION":"53.0544","REV_AT_EPOCH":"7605","MEAN_ELEMENT_THEORY":"SGP4","MEAN_ANOMALY":"291.2675","TLE_LINE1":"1 46699U 20073AF  22062.92640739  .00002012  00000-0  15397-3 0  9991","DECAY_DATE":null,"LAUNCH_DATE":"2020-10-18","COUNTRY_CODE":"US","REF_FRAME":"TEME","APOAPSIS":"548.359"},{"SEMIMAJOR_AXIS":"6925.320","ARG_OF_PERICENTER":"61.5439","OBJECT_ID":"2020-073AG","MEAN_MOTION":"15.06409327","PERIAPSIS":"545.968","SITE":"AFETR","GP_ID":"197766963","TLE_LINE2":"2 46700  53.0561   1.4461 0001757  61.5439 298.5727 15.06409327 75833","OBJECT_NAME":"STARLINK-1800","MEAN_MOTION_DOT":"0.00002288","ECCENTRICITY":"0.00017570","FILE":"3343255","BSTAR":"0.00017242000000","APOAPSIS":"548.402","MEAN_ANOMALY":"298.5727","DECAY_DATE":null,"TLE_LINE1":"1 46700U 20073AG  22062.86419932  .00002288  00000-0  17242-3 0  9992","LAUNCH_DATE":"2020-10-18","COUNTRY_CODE":"US","REF_FRAME":"TEME","REV_AT_EPOCH":"7583","MEAN_ELEMENT_THEORY":"SGP4","MEAN_MOTION_DDOT":"0.0000000000000","INCLINATION":"53.0561","CLASSIFICATION_TYPE":"U","EPHEMERIS_TYPE":"0","OBJECT_TYPE":"PAYLOAD","RCS_SIZE":"LARGE","RA_OF_ASC_NODE":"1.4461","ELEMENT_SET_NO":"999","TIME_SYSTEM":"UTC","PERIOD":"95.592","CENTER_NAME":"EARTH","NORAD_CAT_ID":"46700","EPOCH":"2022-03-03T20:44:26.821248"},{"ELEMENT_SET_NO":"999","RA_OF_ASC_NODE":"347.7975","TIME_SYSTEM":"UTC","CENTER_NAME":"EARTH","PERIOD":"95.592","EPOCH":"2022-03-03T13:33:52.167168","NORAD_CAT_ID":"46701","TLE_LINE1":"1 46701U 20073AH  22062.56518712  .00001085  00000-0  91697-4 0  9997","REF_FRAME":"TEME","DECAY_DATE":null,"LAUNCH_DATE":"2020-10-18","COUNTRY_CODE":"US","MEAN_ANOMALY":"300.5773","APOAPSIS":"548.507","INCLINATION":"53.0571","MEAN_MOTION_DDOT":"0.0000000000000","MEAN_ELEMENT_THEORY":"SGP4","REV_AT_EPOCH":"7600","EPHEMERIS_TYPE":"0","CLASSIFICATION_TYPE":"U","OBJECT_TYPE":"PAYLOAD","RCS_SIZE":"LARGE","MEAN_MOTION":"15.06403128","GP_ID":"197768215","TLE_LINE2":"2 46701  53.0571 347.7975 0001882  59.5401 300.5773 15.06403128 76004","PERIAPSIS":"545.901","SITE":"AFETR","MEAN_MOTION_DOT":"0.00001085","ECCENTRICITY":"0.00018820","OBJECT_NAME":"STARLINK-1801","BSTAR":"0.00009169700000","FILE":"3343255","OBJECT_ID":"2020-073AH","ARG_OF_PERICENTER":"59.5401","SEMIMAJOR_AXIS":"6925.339"},{"MEAN_MOTION":"15.06413391","GP_ID":"197767965","TLE_LINE2":"2 46702  53.0558 326.2593 0002395  63.3088 296.8146 15.06413391 76332","SITE":"AFETR","PERIAPSIS":"545.514","MEAN_MOTION_DOT":"-0.00000324","ECCENTRICITY":"0.00023950","OBJECT_NAME":"STARLINK-1802","FILE":"3343255","BSTAR":"-0.00000282950000","OBJECT_ID":"2020-073AJ","SEMIMAJOR_AXIS":"6925.308","ARG_OF_PERICENTER":"63.3088","ELEMENT_SET_NO":"999","RA_OF_ASC_NODE":"326.2593","TIME_SYSTEM":"UTC","CENTER_NAME":"EARTH","PERIOD":"95.591","NORAD_CAT_ID":"46702","EPOCH":"2022-03-03T21:50:08.028960","MEAN_ANOMALY":"296.8146","TLE_LINE1":"1 46702U 20073AJ  22062.90981515 -.00000324  00000-0 -28295-5 0  9993","DECAY_DATE":null,"LAUNCH_DATE":"2020-10-18","REF_FRAME":"TEME","COUNTRY_CODE":"US","APOAPSIS":"548.831","MEAN_MOTION_DDOT":"0.0000000000000","INCLINATION":"53.0558","MEAN_ELEMENT_THEORY":"SGP4","REV_AT_EPOCH":"7633","EPHEMERIS_TYPE":"0","CLASSIFICATION_TYPE":"U","OBJECT_TYPE":"PAYLOAD","RCS_SIZE":"LARGE"},{"OBJECT_NAME":"STARLINK-1803","ECCENTRICITY":"0.00018130","MEAN_MOTION_DOT":"0.00001657","BSTAR":"0.00013011000000","FILE":"3343255","MEAN_MOTION":"15.06392771","PERIAPSIS":"545.980","SITE":"AFETR","TLE_LINE2":"2 46703  53.0556 346.6997 0001813  60.0774 300.0395 15.06392771 76034","GP_ID":"197767214","ARG_OF_PERICENTER":"60.0774","SEMIMAJOR_AXIS":"6925.371","OBJECT_ID":"2020-073AK","PERIOD":"95.593","CENTER_NAME":"EARTH","EPOCH":"2022-03-03T19:24:10.753056","NORAD_CAT_ID":"46703","RA_OF_ASC_NODE":"346.6997","ELEMENT_SET_NO":"999","TIME_SYSTEM":"UTC","CLASSIFICATION_TYPE":"U","EPHEMERIS_TYPE":"0","RCS_SIZE":"LARGE","OBJECT_TYPE":"PAYLOAD","APOAPSIS":"548.491","DECAY_DATE":null,"TLE_LINE1":"1 46703U 20073AK  22062.80845779  .00001657  00000-0  13011-3 0  9990","REF_FRAME":"TEME","LAUNCH_DATE":"2020-10-18","COUNTRY_CODE":"US","MEAN_ANOMALY":"300.0395","MEAN_ELEMENT_THEORY":"SGP4","REV_AT_EPOCH":"7603","INCLINATION":"53.0556","MEAN_MOTION_DDOT":"0.0000000000000"},{"MEAN_MOTION":"15.06403845","PERIAPSIS":"546.084","SITE":"AFETR","GP_ID":"197767464","TLE_LINE2":"2 46704  53.0550 327.9935 0001614  67.2194 292.8965 15.06403845 76279","OBJECT_NAME":"STARLINK-1804","MEAN_MOTION_DOT":"0.00000682","ECCENTRICITY":"0.00016140","FILE":"3343255","BSTAR":"0.00006469700000","SEMIMAJOR_AXIS":"6925.337","ARG_OF_PERICENTER":"67.2194","OBJECT_ID":"2020-073AL","RA_OF_ASC_NODE":"327.9935","ELEMENT_SET_NO":"999","TIME_SYSTEM":"UTC","PERIOD":"95.592","CENTER_NAME":"EARTH","NORAD_CAT_ID":"46704","EPOCH":"2022-03-03T12:32:49.284096","APOAPSIS":"548.320","MEAN_ANOMALY":"292.8965","DECAY_DATE":null,"TLE_LINE1":"1 46704U 20073AL  22062.52279264  .00000682  00000-0  64697-4 0  9994","REF_FRAME":"TEME","LAUNCH_DATE":"2020-10-18","COUNTRY_CODE":"US","REV_AT_EPOCH":"7627","MEAN_ELEMENT_THEORY":"SGP4","MEAN_MOTION_DDOT":"0.0000000000000","INCLINATION":"53.0550","CLASSIFICATION_TYPE":"U","EPHEMERIS_TYPE":"0","OBJECT_TYPE":"PAYLOAD","RCS_SIZE":"LARGE"},{"APOAPSIS":"548.348","TLE_LINE1":"1 46705U 20073AM  22062.86788470  .00001782  00000-0  13848-3 0  9999","DECAY_DATE":null,"LAUNCH_DATE":"2020-10-18","COUNTRY_CODE":"US","REF_FRAME":"TEME","MEAN_ANOMALY":"296.3105","REV_AT_EPOCH":"7583","MEAN_ELEMENT_THEORY":"SGP4","INCLINATION":"53.0561","MEAN_MOTION_DDOT":"0.0000000000000","CLASSIFICATION_TYPE":"U","EPHEMERIS_TYPE":"0","OBJECT_TYPE":"PAYLOAD","RCS_SIZE":"LARGE","RA_OF_ASC_NODE":"1.4253","ELEMENT_SET_NO":"999","TIME_SYSTEM":"UTC","PERIOD":"95.592","CENTER_NAME":"EARTH","EPOCH":"2022-03-03T20:49:45.238080","NORAD_CAT_ID":"46705","SEMIMAJOR_AXIS":"6925.321","ARG_OF_PERICENTER":"63.8056","OBJECT_ID":"2020-073AM","MEAN_MOTION":"15.06409100","SITE":"AFETR","PERIAPSIS":"546.024","GP_ID":"197767715","TLE_LINE2":"2 46705  53.0561   1.4253 0001678  63.8056 296.3105 15.06409100 75834","OBJECT_NAME":"STARLINK-1805","ECCENTRICITY":"0.00016780","MEAN_MOTION_DOT":"0.00001782","BSTAR":"0.00013848000000","FILE":"3343255"},{"OBJECT_TYPE":"PAYLOAD","RCS_SIZE":"LARGE","EPHEMERIS_TYPE":"0","CLASSIFICATION_TYPE":"U","MEAN_MOTION_DDOT":"0.0000000000000","INCLINATION":"53.0577","MEAN_ELEMENT_THEORY":"SGP4","REV_AT_EPOCH":"7599","MEAN_ANOMALY":"308.6889","LAUNCH_DATE":"2020-10-18","TLE_LINE1":"1 46706U 20073AN  22062.50988693  .00001733  00000-0  13521-3 0  9994","DECAY_DATE":null,"COUNTRY_CODE":"US","REF_FRAME":"TEME","APOAPSIS":"548.493","NORAD_CAT_ID":"46706","EPOCH":"2022-03-03T12:14:14.230752","CENTER_NAME":"EARTH","PERIOD":"95.592","TIME_SYSTEM":"UTC","ELEMENT_SET_NO":"999","RA_OF_ASC_NODE":"348.0393","OBJECT_ID":"2020-073AN","ARG_OF_PERICENTER":"51.4268","SEMIMAJOR_AXIS":"6925.327","FILE":"3342689","BSTAR":"0.00013521000000","ECCENTRICITY":"0.00018790","MEAN_MOTION_DOT":"0.00001733","OBJECT_NAME":"STARLINK-1807","GP_ID":"197707547","TLE_LINE2":"2 46706  53.0577 348.0393 0001879  51.4268 308.6889 15.06407108 75997","PERIAPSIS":"545.891","SITE":"AFETR","MEAN_MOTION":"15.06407108"},{"RA_OF_ASC_NODE":"327.1846","ELEMENT_SET_NO":"999","TIME_SYSTEM":"UTC","PERIOD":"95.592","CENTER_NAME":"EARTH","NORAD_CAT_ID":"46707","EPOCH":"2022-03-03T16:47:35.067552","APOAPSIS":"548.115","MEAN_ANOMALY":"294.5861","LAUNCH_DATE":"2020-10-18","TLE_LINE1":"1 46707U 20073AP  22062.69971143  .00001187  00000-0  98579-4 0  9997","DECAY_DATE":null,"COUNTRY_CODE":"US","REF_FRAME":"TEME","REV_AT_EPOCH":"7630","MEAN_ELEMENT_THEORY":"SGP4","MEAN_MOTION_DDOT":"0.0000000000000","INCLINATION":"53.0550","CLASSIFICATION_TYPE":"U","EPHEMERIS_TYPE":"0","OBJECT_TYPE":"PAYLOAD","RCS_SIZE":"LARGE","MEAN_MOTION":"15.06404352","PERIAPSIS":"546.285","SITE":"AFETR","GP_ID":"197766714","TLE_LINE2":"2 46707  53.0550 327.1846 0001321  65.5265 294.5861 15.06404352 76302","OBJECT_NAME":"STARLINK-1808","ECCENTRICITY":"0.00013210","MEAN_MOTION_DOT":"0.00001187","FILE":"3343255","BSTAR":"0.00009857900000","SEMIMAJOR_AXIS":"6925.335","ARG_OF_PERICENTER":"65.5265","OBJECT_ID":"2020-073AP"},{"ELEMENT_SET_NO":"999","RA_OF_ASC_NODE":"272.8642","TIME_SYSTEM":"UTC","CENTER_NAME":"EARTH","PERIOD":"91.871","EPOCH":"2022-03-03T20:54:46.279008","NORAD_CAT_ID":"46708","TLE_LINE1":"1 46708U 20073AQ  22062.87136897  .00050191  00000-0  45765-3 0  9994","DECAY_DATE":null,"COUNTRY_CODE":"US","LAUNCH_DATE":"2020-10-18","REF_FRAME":"TEME","MEAN_ANOMALY":"195.1557","APOAPSIS":"367.938","INCLINATION":"53.0506","MEAN_MOTION_DDOT":"0.0000000000000","REV_AT_EPOCH":"7708","MEAN_ELEMENT_THEORY":"SGP4","EPHEMERIS_TYPE":"0","CLASSIFICATION_TYPE":"U","OBJECT_TYPE":"PAYLOAD","RCS_SIZE":"LARGE","MEAN_MOTION":"15.67409541","TLE_LINE2":"2 46708  53.0506 272.8642 0002399 164.9531 195.1557 15.67409541 77086","GP_ID":"197766964","PERIAPSIS":"364.702","SITE":"AFETR","MEAN_MOTION_DOT":"0.00050191","ECCENTRICITY":"0.00023990","OBJECT_NAME":"STARLINK-1809","BSTAR":"0.00045765000000","FILE":"3343255","OBJECT_ID":"2020-073AQ","SEMIMAJOR_AXIS":"6744.455","ARG_OF_PERICENTER":"164.9531"}];
